0 CZ-4 DEB
1 26233U 99057DX  13281.82227145  .00004587  00000-0  62018-3 0  5857
2 26233 098.6135 289.2292 0012891 097.3352 028.2251 14.79519080727037
0 CZ-4 DEB
1 26233U 99057DX  13283.51779791  .00006577  00000-0  88499-3 0  5867
2 26233 098.6136 291.0453 0012929 092.2949 058.7794 14.79543268727288
0 CZ-4 DEB
1 26233U 99057DX  13285.54071333  .00004506  00000-0  60879-3 0  5872
2 26233 098.6134 293.2124 0012842 086.5804 032.8970 14.79562524727583
0 CZ-4 DEB
1 26233U 99057DX  13287.84077667  .00008211  00000-0  11017-2 0  5880
2 26233 098.6126 295.6769 0012804 080.2058 043.1625 14.79582068727920
0 CZ-4 DEB
1 26233U 99057DX  13290.06271569  .00006599  00000-0  88659-3 0  5890
2 26233 098.6120 298.0570 0012720 073.7683 357.8247 14.79612921728253
0 CZ-4 DEB
1 26233U 99057DX  13292.84492020  .00007114  00000-0  95444-3 0  5901
2 26233 098.6120 301.0373 0012615 065.9700 056.6537 14.79641519728661
0 CZ-4 DEB
1 26233U 99057DX  13294.99569738  .00006630  00000-0  88964-3 0  5912
2 26233 098.6124 303.3411 0012506 059.6840 352.7774 14.79666345728989
